[{"OBJECT_NAME":"STARLINK-5169","OBJECT_ID":"2022-136K","EPOCH":"2026-03-09T21:58:33.961440","MEAN_MOTION":15.08832508,"ECCENTRICITY":0.00014574,"INCLINATION":53.2191,"RA_OF_ASC_NODE":312.7664,"ARG_OF_PERICENTER":91.4758,"MEAN_ANOMALY":268.6401,"EPHEMERIS_TYPE":0,"CLASSIFICATION_TYPE":"U","NORAD_CAT_ID":54060,"ELEMENT_SET_NO":999,"REV_AT_EPOCH":18730,"BSTAR":6.7009844e-5,"MEAN_MOTION_DOT":7.78e-6,"MEAN_MOTION_DDOT":0},{"OBJECT_NAME":"KUIPER-00164","OBJECT_ID":"2025-301B","EPOCH":"2026-03-09T22:00:01.999584","MEAN_MOTION":15.08488187,"ECCENTRICITY":0.00045568,"INCLINATION":51.8847,"RA_OF_ASC_NODE":66.2292,"ARG_OF_PERICENTER":84.8156,"MEAN_ANOMALY":198.9561,"EPHEMERIS_TYPE":0,"CLASSIFICATION_TYPE":"U","NORAD_CAT_ID":67134,"ELEMENT_SET_NO":999,"REV_AT_EPOCH":541,"BSTAR":0.00024752424,"MEAN_MOTION_DOT":3.618e-5,"MEAN_MOTION_DDOT":0}]
